[{"OBJECT_NAME":"OBJECT F","OBJECT_ID":"2023-072F","EPOCH":"2026-03-09T23:31:37.259904","MEAN_MOTION":15.29470958,"ECCENTRICITY":0.00062878,"INCLINATION":97.5173,"RA_OF_ASC_NODE":265.798,"ARG_OF_PERICENTER":19.0017,"MEAN_ANOMALY":341.1456,"EPHEMERIS_TYPE":0,"CLASSIFICATION_TYPE":"U","NORAD_CAT_ID":56748,"ELEMENT_SET_NO":999,"REV_AT_EPOCH":15460,"BSTAR":0.00043416252,"MEAN_MOTION_DOT":0.00012341,"MEAN_MOTION_DDOT":0},{"OBJECT_NAME":"STARLINK-34173","OBJECT_ID":"2025-113AC","EPOCH":"2026-03-09T06:56:50.123328","MEAN_MOTION":15.30190549,"ECCENTRICITY":0.00012565,"INCLINATION":53.1578,"RA_OF_ASC_NODE":93.001,"ARG_OF_PERICENTER":99.243,"MEAN_ANOMALY":260.8713,"EPHEMERIS_TYPE":0,"CLASSIFICATION_TYPE":"U","NORAD_CAT_ID":64196,"ELEMENT_SET_NO":999,"REV_AT_EPOCH":4500,"BSTAR":0.00040088068,"MEAN_MOTION_DOT":0.00011529,"MEAN_MOTION_DDOT":0}]
